[
  {
    "city_id": 1,
    "region_id": 7,
    "name_ar": "تبوك",
    "name_en": "Tabuk"
  },
  {
    "city_id": 3,
    "region_id": 1,
    "name_ar": "الرياض",
    "name_en": "Riyadh"
  },
  {
    "city_id": 5,
    "region_id": 2,
    "name_ar": "الطائف",
    "name_en": "At Taif"
  },
  {
    "city_id": 6,
    "region_id": 2,
    "name_ar": "مكة المكرمة",
    "name_en": "Makkah"
  },
  {
    "city_id": 10,
    "region_id": 8,
    "name_ar": "حائل",
    "name_en": "Hail"
  },
  {
    "city_id": 11,
    "region_id": 4,
    "name_ar": "بريدة",
    "name_en": "Buraidah"
  },
  {
    "city_id": 12,
    "region_id": 5,
    "name_ar": "الهفوف",
    "name_en": "Al Hafuf"
  },
  {
    "city_id": 13,
    "region_id": 5,
    "name_ar": "الدمام",
    "name_en": "Dammam"
  },
  {
    "city_id": 14,
    "region_id": 3,
    "name_ar": "المدينة المنورة",
    "name_en": "Madinah"
  },
  {
    "city_id": 15,
    "region_id": 6,
    "name_ar": "ابها",
    "name_en": "Abha"
  },
  {
    "city_id": 18,
    "region_id": 2,
    "name_ar": "جدة",
    "name_en": "Jeddah"
  },
  {
    "city_id": 31,
    "region_id": 5,
    "name_ar": "الخبر",
    "name_en": "Al Khobar"
  },
  {
    "city_id": 47,
    "region_id": 5,
    "name_ar": "حفر الباطن",
    "name_en": "Hafar Al Batin"
  },
  {
    "city_id": 62,
    "region_id": 6,
    "name_ar": "خميس مشيط",
    "name_en": "Khamis Mushayt"
  },
  {
    "city_id": 67,
    "region_id": 5,
    "name_ar": "القطيف",
    "name_en": "Al Qatif"
  },
  {
    "city_id": 80,
    "region_id": 4,
    "name_ar": "عنيزة",
    "name_en": "Unayzah"
  }
]